{
  "type": "FeatureCollection",
  "features": [
    {
      "type": "Feature",
      "properties": {
        "norad_id": 44794,
        "name": "BEIDOU-3 M21 (C43)",
        "group": "beidou",
        "lat": 51.70665933729746,
        "lon": 59.294988644451465,
        "alt_km": 21522.597776900748,
        "timestamp": "2025-12-26T11:25:45.461051+00:00",
        "meta_object_name": "BEIDOU-3 M21 (C43)",
        "meta_object_id": "2019-078B",
        "meta_epoch": "2025-12-25T05:55:32.884896",
        "meta_mean_motion": 1.86227898,
        "meta_eccentricity": 0.0004304,
        "meta_inclination": 54.0703,
        "meta_ra_of_asc_node": 305.9129,
        "meta_arg_of_pericenter": 12.6939,
        "meta_mean_anomaly": 347.3266,
        "meta_ephemeris_type": 0,
        "meta_classification_type": "U",
        "meta_norad_cat_id": 44794,
        "meta_element_set_no": 999,
        "meta_rev_at_epoch": 4141,
        "meta_bstar": 0,
        "meta_mean_motion_dot": -5.3e-07,
        "meta_mean_motion_ddot": 0,
        "tle_line1": "1 44794U 19078B   25359.24690839 -.00000053  00000+0  00000+0 0  9995",
        "tle_line2": "2 44794  54.0703 305.9129 0004304  12.6939 347.3266  1.86227898 41411"
      },
      "geometry": {
        "type": "Point",
        "coordinates": [
          59.294988644451465,
          51.70665933729746
        ]
      }
    },
    {
      "type": "Feature",
      "properties": {
        "norad_id": 44864,
        "name": "BEIDOU-3 M19 (C41)",
        "group": "beidou",
        "lat": -46.119177987189275,
        "lon": 24.861748219080575,
        "alt_km": 21483.718995249597,
        "timestamp": "2025-12-26T11:25:45.461061+00:00",
        "meta_object_name": "BEIDOU-3 M19 (C41)",
        "meta_object_id": "2019-090A",
        "meta_epoch": "2025-12-24T13:05:33.212256",
        "meta_mean_motion": 1.86231537,
        "meta_eccentricity": 0.00184016,
        "meta_inclination": 56.4026,
        "meta_ra_of_asc_node": 68.5704,
        "meta_arg_of_pericenter": 285.2046,
        "meta_mean_anomaly": 160.4424,
        "meta_ephemeris_type": 0,
        "meta_classification_type": "U",
        "meta_norad_cat_id": 44864,
        "meta_element_set_no": 999,
        "meta_rev_at_epoch": 4098,
        "meta_bstar": 0,
        "meta_mean_motion_dot": -2.5e-07,
        "meta_mean_motion_ddot": 0,
        "tle_line1": "1 44864U 19090A   25358.54552329 -.00000025  00000+0  00000+0 0  9999",
        "tle_line2": "2 44864  56.4026  68.5704 0018401 285.2046 160.4424  1.86231537 40980"
      },
      "geometry": {
        "type": "Point",
        "coordinates": [
          24.861748219080575,
          -46.119177987189275
        ]
      }
    },
    {
      "type": "Feature",
      "properties": {
        "norad_id": 44865,
        "name": "BEIDOU-3 M20 (C42)",
        "group": "beidou",
        "lat": 24.479383098514514,
        "lon": 86.15010845328989,
        "alt_km": 21526.89081738896,
        "timestamp": "2025-12-26T11:25:45.461071+00:00",
        "meta_object_name": "BEIDOU-3 M20 (C42)",
        "meta_object_id": "2019-090B",
        "meta_epoch": "2025-12-24T09:14:17.322144",
        "meta_mean_motion": 1.86231611,
        "meta_eccentricity": 0.00155264,
        "meta_inclination": 56.4041,
        "meta_ra_of_asc_node": 68.61,
        "meta_arg_of_pericenter": 297.3537,
        "meta_mean_anomaly": 130.233,
        "meta_ephemeris_type": 0,
        "meta_classification_type": "U",
        "meta_norad_cat_id": 44865,
        "meta_element_set_no": 999,
        "meta_rev_at_epoch": 4096,
        "meta_bstar": 0,
        "meta_mean_motion_dot": -2.4e-07,
        "meta_mean_motion_ddot": 0,
        "tle_line1": "1 44865U 19090B   25358.38492271 -.00000024  00000+0  00000+0 0  9990",
        "tle_line2": "2 44865  56.4041  68.6100 0015526 297.3537 130.2330  1.86231611 40965"
      },
      "geometry": {
        "type": "Point",
        "coordinates": [
          86.15010845328989,
          24.479383098514514
        ]
      }
    },
    {
      "type": "Feature",
      "properties": {
        "norad_id": 45344,
        "name": "BEIDOU-3 G2 (C60)",
        "group": "beidou",
        "lat": -2.1322165997798734,
        "lon": -13.251383209157154,
        "alt_km": 35782.516203369574,
        "timestamp": "2025-12-26T11:25:45.461081+00:00",
        "meta_object_name": "BEIDOU-3 G2 (C60)",
        "meta_object_id": "2020-017A",
        "meta_epoch": "2025-12-25T19:22:19.403328",
        "meta_mean_motion": 1.00272136,
        "meta_eccentricity": 0.00021357,
        "meta_inclination": 2.5199,
        "meta_ra_of_asc_node": 44.1352,
        "meta_arg_of_pericenter": 237.2485,
        "meta_mean_anomaly": 183.8049,
        "meta_ephemeris_type": 0,
        "meta_classification_type": "U",
        "meta_norad_cat_id": 45344,
        "meta_element_set_no": 999,
        "meta_rev_at_epoch": 2152,
        "meta_bstar": 0,
        "meta_mean_motion_dot": -1.2e-06,
        "meta_mean_motion_ddot": 0,
        "tle_line1": "1 45344U 20017A   25359.80716902 -.00000120  00000+0  00000+0 0  9999",
        "tle_line2": "2 45344   2.5199  44.1352 0002135 237.2485 183.8049  1.00272136 21524"
      },
      "geometry": {
        "type": "Point",
        "coordinates": [
          -13.251383209157154,
          -2.1322165997798734
        ]
      }
    },
    {
      "type": "Feature",
      "properties": {
        "norad_id": 45807,
        "name": "BEIDOU-3 G3 (C61)",
        "group": "beidou",
        "lat": -1.5373251272541488,
        "lon": 17.182914844269057,
        "alt_km": 35760.006726374995,
        "timestamp": "2025-12-26T11:25:45.461091+00:00",
        "meta_object_name": "BEIDOU-3 G3 (C61)",
        "meta_object_id": "2020-040A",
        "meta_epoch": "2025-12-25T22:09:08.222976",
        "meta_mean_motion": 1.00267109,
        "meta_eccentricity": 0.00065911,
        "meta_inclination": 2.021,
        "meta_ra_of_asc_node": 66.691,
        "meta_arg_of_pericenter": 308.6704,
        "meta_mean_anomaly": 162.1167,
        "meta_ephemeris_type": 0,
        "meta_classification_type": "U",
        "meta_norad_cat_id": 45807,
        "meta_element_set_no": 999,
        "meta_rev_at_epoch": 2033,
        "meta_bstar": 0,
        "meta_mean_motion_dot": -3.32e-06,
        "meta_mean_motion_ddot": 0,
        "tle_line1": "1 45807U 20040A   25359.92301184 -.00000332  00000+0  00000+0 0  9999",
        "tle_line2": "2 45807   2.0210  66.6910 0006591 308.6704 162.1167  1.00267109 20336"
      },
      "geometry": {
        "type": "Point",
        "coordinates": [
          17.182914844269057,
          -1.5373251272541488
        ]
      }
    },
    {
      "type": "Feature",
      "properties": {
        "norad_id": 56564,
        "name": "BEIDOU-3 G4 (C62)",
        "group": "beidou",
        "lat": 0.6710929950415858,
        "lon": 66.67699896296043,
        "alt_km": 35789.31426200426,
        "timestamp": "2025-12-26T11:25:45.461101+00:00",
        "meta_object_name": "BEIDOU-3 G4 (C62)",
        "meta_object_id": "2023-066A",
        "meta_epoch": "2025-12-26T05:07:38.649792",
        "meta_mean_motion": 1.0027069,
        "meta_eccentricity": 0.0002533,
        "meta_inclination": 0.787,
        "meta_ra_of_asc_node": 303.1041,
        "meta_arg_of_pericenter": 230.0794,
        "meta_mean_anomaly": 158.741,
        "meta_ephemeris_type": 0,
        "meta_classification_type": "U",
        "meta_norad_cat_id": 56564,
        "meta_element_set_no": 999,
        "meta_rev_at_epoch": 966,
        "meta_bstar": 0,
        "meta_mean_motion_dot": -8.9e-07,
        "meta_mean_motion_ddot": 0,
        "tle_line1": "1 56564U 23066A   25360.21364178 -.00000089  00000+0  00000+0 0  9997",
        "tle_line2": "2 56564   0.7870 303.1041 0002533 230.0794 158.7410  1.00270690  9662"
      },
      "geometry": {
        "type": "Point",
        "coordinates": [
          66.67699896296043,
          0.6710929950415858
        ]
      }
    },
    {
      "type": "Feature",
      "properties": {
        "norad_id": 58654,
        "name": "BEIDOU-3 M28 (C50)",
        "group": "beidou",
        "lat": 40.4250623362373,
        "lon": 103.81624209073962,
        "alt_km": 21529.150786258,
        "timestamp": "2025-12-26T11:25:45.461111+00:00",
        "meta_object_name": "BEIDOU-3 M28 (C50)",
        "meta_object_id": "2023-207A",
        "meta_epoch": "2025-12-24T18:54:51.717312",
        "meta_mean_motion": 1.86229668,
        "meta_eccentricity": 0.0002918,
        "meta_inclination": 55.5946,
        "meta_ra_of_asc_node": 68.1934,
        "meta_arg_of_pericenter": 275.8619,
        "meta_mean_anomaly": 84.1589,
        "meta_ephemeris_type": 0,
        "meta_classification_type": "U",
        "meta_norad_cat_id": 58654,
        "meta_element_set_no": 999,
        "meta_rev_at_epoch": 1359,
        "meta_bstar": 0,
        "meta_mean_motion_dot": -2.7e-07,
        "meta_mean_motion_ddot": 0,
        "tle_line1": "1 58654U 23207A   25358.78809858 -.00000027  00000+0  00000+0 0  9996",
        "tle_line2": "2 58654  55.5946  68.1934 0002918 275.8619  84.1589  1.86229668 13594"
      },
      "geometry": {
        "type": "Point",
        "coordinates": [
          103.81624209073962,
          40.4250623362373
        ]
      }
    }
  ]
}